{
  "norad_id": 66482,
  "name": "STARLINK-35648",
  "history": [
    {
      "epoch": "2026-03-28T16:33:22.329792",
      "apogee_km": 483.7131559108375,
      "perigee_km": 482.2182588529531,
      "latitude_deg": -5.23355879207521,
      "longitude_deg": 174.4248108798638,
      "semi_major_axis_km": 6861.102707381895,
      "eccentricity": 0.00010894,
      "inclination_deg": 43.0,
      "raan_deg": 188.7374,
      "arg_perigee_deg": 285.2823,
      "mean_anomaly_deg": 74.7908,
      "mean_motion_rev_day": 15.27607849
    }
  ]
}